NAVSTAR 77 (USA 289)    
1 43873U 18109A   24251.14225322  .00000010  00000+0  00000+0 0  9998
2 43873  55.3268 117.7889 0030361 192.2975  11.2172  2.00559614 42029
